[{"OBJECT_NAME":"STARLINK-6091","OBJECT_ID":"2023-046AC","EPOCH":"2026-03-09T22:00:01.999584","MEAN_MOTION":15.12146567,"ECCENTRICITY":0.00019288,"INCLINATION":42.9992,"RA_OF_ASC_NODE":144.7616,"ARG_OF_PERICENTER":284.3584,"MEAN_ANOMALY":155.5208,"EPHEMERIS_TYPE":0,"CLASSIFICATION_TYPE":"U","NORAD_CAT_ID":56119,"ELEMENT_SET_NO":999,"REV_AT_EPOCH":577,"BSTAR":0.00049828792,"MEAN_MOTION_DOT":8.529e-5,"MEAN_MOTION_DDOT":0},{"OBJECT_NAME":"ELECTRON KICK STAGE R\/B","OBJECT_ID":"2023-196B","EPOCH":"2026-03-09T10:54:03.246336","MEAN_MOTION":15.12760744,"ECCENTRICITY":0.00189263,"INCLINATION":42.0179,"RA_OF_ASC_NODE":242.1679,"ARG_OF_PERICENTER":295.0915,"MEAN_ANOMALY":64.7951,"EPHEMERIS_TYPE":0,"CLASSIFICATION_TYPE":"U","NORAD_CAT_ID":58579,"ELEMENT_SET_NO":999,"REV_AT_EPOCH":12282,"BSTAR":0.00048326039,"MEAN_MOTION_DOT":8.466e-5,"MEAN_MOTION_DDOT":0}]
